COMMENT,ORIGINATOR,NORAD_CAT_ID,OBJECT_NAME,OBJECT_TYPE,CLASSIFICATION_TYPE,INTLDES,EPOCH,EPOCH_MICROSECONDS,MEAN_MOTION,ECCENTRICITY,INCLINATION,RA_OF_ASC_NODE,ARG_OF_PERICENTER,MEAN_ANOMALY,EPHEMERIS_TYPE,ELEMENT_SET_NO,REV_AT_EPOCH,BSTAR,MEAN_MOTION_DOT,MEAN_MOTION_DDOT,FILE,TLE_LINE0,TLE_LINE1,TLE_LINE2,OBJECT_ID,OBJECT_NUMBER,SEMIMAJOR_AXIS,PERIOD,APOGEE,PERIGEE,DECAYED
GENERATED VIA SPACETRACK.ORG API,18 SPCS,26998,TIMED,PAYLOAD,U,01055B,6/17/24 15:36,128992,14.91446429,0.0002255,74.0714,260.2711,292.9151,67.1793,0,999,22189,0.00021273,0.0000209,0,4344470,0 TIMED,1 26998U 01055B   24169.65047603  .00002090  00000-0  21273-3 0  9997,2 26998  74.0714 260.2711 0002255 292.9151  67.1793 14.91446429221890,2001-055B,26998,6971.562,96.551,594.999,591.855,0
GENERATED VIA SPACETRACK.ORG API,18 SPCS,26998,TIMED,PAYLOAD,U,01055B,6/18/24 2:52,539648,14.91448163,0.0002258,74.0715,259.3316,292.5949,67.4995,0,999,22210,0.00020274,0.0000199,0,4344598,0 TIMED,1 26998U 01055B   24170.12001782  .00001990  00000-0  20274-3 0  9997,2 26998  74.0715 259.3316 0002258 292.5949  67.4995 14.91448163222104,2001-055B,26998,6971.556,96.55,594.995,591.847,0
GENERATED VIA SPACETRACK.ORG API,18 SPCS,26998,TIMED,PAYLOAD,U,01055B,6/18/24 14:08,904512,14.91449768,0.0002273,74.0715,258.392,292.0666,68.0275,0,999,22203,0.00019371,0.00001899,0,4345144,0 TIMED,1 26998U 01055B   24170.58955908  .00001899  00000-0  19371-3 0  9999,2 26998  74.0715 258.3920 0002273 292.0666  68.0275 14.91449768222034,2001-055B,26998,6971.551,96.55,595.001,591.832,0
GENERATED VIA SPACETRACK.ORG API,18 SPCS,26998,TIMED,PAYLOAD,U,01055B,6/18/24 15:45,381504,14.91449997,0.0002276,74.0715,258.2578,291.9648,68.1293,0,999,22204,0.00019203,0.00001883,0,4345420,0 TIMED,1 26998U 01055B   24170.65663636  .00001883  00000-0  19203-3 0  9998,2 26998  74.0715 258.2578 0002276 291.9648  68.1293 14.91449997222049,2001-055B,26998,6971.55,96.55,595.002,591.829,0
GENERATED VIA SPACETRACK.ORG API,18 SPCS,26998,TIMED,PAYLOAD,U,01055B,6/19/24 4:38,157696,14.9145178,0.0002292,74.0715,257.184,291.3012,68.7926,0,999,22226,0.00017875,0.0000175,0,4345576,0 TIMED,1 26998U 01055B   24171.19325414  .00001750  00000-0  17875-3 0  9993,2 26998  74.0715 257.1840 0002292 291.3012  68.7926 14.91451780222262,2001-055B,26998,6971.545,96.55,595.008,591.812,0
GENERATED VIA SPACETRACK.ORG API,18 SPCS,26998,TIMED,PAYLOAD,U,01055B,6/19/24 14:17,961760,14.9145303,0.0002311,74.0715,256.3786,290.8724,69.2211,0,999,22218,0.00017189,0.00001681,0,4346095,0 TIMED,1 26998U 01055B   24171.59571715  .00001681  00000-0  17189-3 0  9995,2 26998  74.0715 256.3786 0002311 290.8724  69.2211 14.91453030222182,2001-055B,26998,6971.541,96.55,595.017,591.795,0
GENERATED VIA SPACETRACK.ORG API,18 SPCS,26998,TIMED,PAYLOAD,U,01055B,6/19/24 15:54,425792,14.91453268,0.0002314,74.0715,256.2444,290.8986,69.1949,0,999,22219,0.00017071,0.00001669,0,4346387,0 TIMED,1 26998U 01055B   24171.66279428  .00001669  00000-0  17071-3 0  9995,2 26998  74.0715 256.2444 0002314 290.8986  69.1949 14.91453268222196,2001-055B,26998,6971.54,96.55,595.018,591.792,0
GENERATED VIA SPACETRACK.ORG API,18 SPCS,26998,TIMED,PAYLOAD,U,01055B,6/20/24 14:26,824608,14.91456362,0.0002329,74.0704,254.3654,289.5133,70.5797,0,999,22233,0.0001737,0.00001699,0,4346663,0 TIMED,1 26998U 01055B   24172.60187297  .00001699  00000-0  17370-3 0  9997,2 26998  74.0704 254.3654 0002329 289.5133  70.5797 14.91456362222332,2001-055B,26998,6971.531,96.55,595.019,591.772,0
GENERATED VIA SPACETRACK.ORG API,18 SPCS,26998,TIMED,PAYLOAD,U,01055B,6/20/24 16:03,275680,14.9145651,0.0002331,74.0704,254.2312,289.3772,70.7158,0,999,22234,0.0001709,0.00001671,0,4347274,0 TIMED,1 26998U 01055B   24172.66894995  .00001671  00000-0  17090-3 0  9992,2 26998  74.0704 254.2312 0002331 289.3772  70.7158 14.91456510222341,2001-055B,26998,6971.53,96.55,595.02,591.77,0
GENERATED VIA SPACETRACK.ORG API,18 SPCS,26998,TIMED,PAYLOAD,U,01055B,6/20/24 22:29,57504,14.91457445,0.000234,74.0704,253.6943,289.0317,71.0612,0,999,22252,0.00016882,0.00001651,0,4346841,0 TIMED,1 26998U 01055B   24172.93725761  .00001651  00000-0  16882-3 0  9992,2 26998  74.0704 253.6943 0002340 289.0317  71.0612 14.91457445222523,2001-055B,26998,6971.527,96.55,595.024,591.761,0
GENERATED VIA SPACETRACK.ORG API,18 SPCS,26998,TIMED,PAYLOAD,U,01055B,6/21/24 14:35,466272,14.91460494,0.0002359,74.0703,252.3521,288.3428,71.7498,0,999,22248,0.00017906,0.00001753,0,4347757,0 TIMED,1 26998U 01055B   24173.60802623  .00001753  00000-0  17906-3 0  9991,2 26998  74.0703 252.3521 0002359 288.3428  71.7498 14.91460494222487,2001-055B,26998,6971.518,96.55,595.027,591.738,0
GENERATED VIA SPACETRACK.ORG API,18 SPCS,26998,TIMED,PAYLOAD,U,01055B,6/21/24 16:12,901792,14.91460717,0.0002363,74.0703,252.2178,288.3306,71.7619,0,999,22249,0.00017847,0.00001747,0,4347990,0 TIMED,1 26998U 01055B   24173.67510303  .00001747  00000-0  17847-3 0  9996,2 26998  74.0703 252.2178 0002363 288.3306  71.7619 14.91460717222498,2001-055B,26998,6971.517,96.55,595.029,591.735,0
GENERATED VIA SPACETRACK.ORG API,18 SPCS,26998,TIMED,PAYLOAD,U,01055B,6/22/24 5:04,376448,14.91462042,0.0002373,74.0703,251.144,287.5843,72.508,0,999,22271,0.00016749,0.00001638,0,4348060,0 TIMED,1 26998U 01055B   24174.21171732  .00001638  00000-0  16749-3 0  9995,2 26998  74.0703 251.1440 0002373 287.5843  72.5080 14.91462042222715,2001-055B,26998,6971.513,96.55,595.032,591.724,0
GENERATED VIA SPACETRACK.ORG API,18 SPCS,26998,TIMED,PAYLOAD,U,01055B,6/22/24 13:07,519488,14.91463368,0.0002385,74.0703,250.4729,287.2813,72.8108,0,999,22262,0.00017111,0.00001674,0,4348629,0 TIMED,1 26998U 01055B   24174.54710092  .00001674  00000-0  17111-3 0  9993,2 26998  74.0703 250.4729 0002385 287.2813  72.8108 14.91463368222620,2001-055B,26998,6971.509,96.549,595.037,591.711,0
GENERATED VIA SPACETRACK.ORG API,18 SPCS,26998,TIMED,PAYLOAD,U,01055B,6/22/24 16:21,371520,14.91463722,0.0002394,74.0703,250.2044,287.1693,72.9227,0,999,22264,0.00016871,0.0000165,0,4348886,0 TIMED,1 26998U 01055B   24174.68125430  .00001650  00000-0  16871-3 0  9990,2 26998  74.0703 250.2044 0002394 287.1693  72.9227 14.91463722222642,2001-055B,26998,6971.508,96.549,595.042,591.704,0
GENERATED VIA SPACETRACK.ORG API,18 SPCS,26998,TIMED,PAYLOAD,U,01055B,6/23/24 5:13,756320,14.91464949,0.0002409,74.0702,249.1306,286.6844,73.4074,0,999,22286,0.00015801,0.00001543,0,4348952,0 TIMED,1 26998U 01055B   24175.21786755  .00001543  00000-0  15801-3 0  9996,2 26998  74.0702 249.1306 0002409 286.6844  73.4074 14.91464949222860,2001-055B,26998,6971.504,96.549,595.048,591.689,0
GENERATED VIA SPACETRACK.ORG API,18 SPCS,26998,TIMED,PAYLOAD,U,01055B,6/23/24 13:16,819008,14.91466009,0.0002422,74.0702,248.4595,286.3088,73.7828,0,999,22277,0.00015579,0.00001521,0,4349479,0 TIMED,1 26998U 01055B   24175.55325022  .00001521  00000-0  15579-3 0  9997,2 26998  74.0702 248.4595 0002422 286.3088  73.7828 14.91466009222773,2001-055B,26998,6971.501,96.549,595.054,591.677,0
GENERATED VIA SPACETRACK.ORG API,18 SPCS,26998,TIMED,PAYLOAD,U,01055B,6/24/24 5:22,910688,14.91468054,0.0002436,74.0702,247.1172,285.5579,74.5335,0,999,22301,0.00015142,0.00001477,0,4349866,0 TIMED,1 26998U 01055B   24176.22401517  .00001477  00000-0  15142-3 0  9992,2 26998  74.0702 247.1172 0002436 285.5579  74.5335 14.91468054223013,2001-055B,26998,6971.494,96.549,595.057,591.661,0
GENERATED VIA SPACETRACK.ORG API,18 SPCS,26998,TIMED,PAYLOAD,U,01055B,6/24/24 13:25,944000,14.91468821,0.000245,74.0702,246.4461,285.0679,75.0232,0,999,22292,0.00014684,0.00001431,0,4350351,0 TIMED,1 26998U 01055B   24176.55939750  .00001431  00000-0  14684-3 0  9993,2 26998  74.0702 246.4461 0002450 285.0679  75.0232 14.91468821222921,2001-055B,26998,6971.492,96.549,595.065,591.649,0
GENERATED VIA SPACETRACK.ORG API,18 SPCS,26998,TIMED,PAYLOAD,U,01055B,6/24/24 15:02,345824,14.91469009,0.0002455,74.0702,246.3119,285.0452,75.0459,0,999,22293,0.0001462,0.00001425,0,4350598,0 TIMED,1 26998U 01055B   24176.62647391  .00001425  00000-0  14620-3 0  9991,2 26998  74.0702 246.3119 0002455 285.0452  75.0459 14.91469009222935,2001-055B,26998,6971.491,96.549,595.068,591.645,0
GENERATED VIA SPACETRACK.ORG API,18 SPCS,26998,TIMED,PAYLOAD,U,01055B,6/25/24 5:31,913856,14.91470972,0.0002467,74.0701,245.1038,284.3923,75.6986,0,999,22316,0.00014609,0.00001424,0,4350671,0 TIMED,1 26998U 01055B   24177.23016104  .00001424  00000-0  14609-3 0  9997,2 26998  74.0701 245.1038 0002467 284.3923  75.6986 14.91470972223167,2001-055B,26998,6971.485,96.549,595.07,591.63,0
GENERATED VIA SPACETRACK.ORG API,18 SPCS,26998,TIMED,PAYLOAD,U,01055B,6/25/24 11:57,487456,14.91471898,0.0002476,74.0701,244.567,284.0039,76.0868,0,999,22306,0.00014861,0.00001449,0,4351124,0 TIMED,1 26998U 01055B   24177.49846629  .00001449  00000-0  14861-3 0  9995,2 26998  74.0701 244.5670 0002476 284.0039  76.0868 14.91471898223068,2001-055B,26998,6971.482,96.549,595.073,591.621,0
GENERATED VIA SPACETRACK.ORG API,18 SPCS,26998,TIMED,PAYLOAD,U,01055B,6/25/24 15:10,266912,14.91472304,0.000248,74.0701,244.2985,283.8646,76.2261,0,999,22308,0.00014841,0.00001447,0,4351374,0 TIMED,1 26998U 01055B   24177.63261883  .00001447  00000-0  14841-3 0  9990,2 26998  74.0701 244.2985 0002480 283.8646  76.2261 14.91472304223084,2001-055B,26998,6971.481,96.549,595.075,591.617,0
GENERATED VIA SPACETRACK.ORG API,18 SPCS,26998,TIMED,PAYLOAD,U,01055B,6/26/24 7:16,86432,14.91474872,0.0002488,74.07,242.9562,283.04,77.0505,0,999,22332,0.00015508,0.00001514,0,4351750,0 TIMED,1 26998U 01055B   24178.30338063  .00001514  00000-0  15508-3 0  9996,2 26998  74.0700 242.9562 0002488 283.0400  77.0505 14.91474872223326,2001-055B,26998,6971.473,96.549,595.072,591.603,0
